{
    "links": {
        "self": "http://www.neowsapp.com/rest/v1/neo/3601278?api_key=iIulBulltgU6a56xZRHN4H3l9WmuAYTsLGpBGhQ2"
    },
    "id": "3601278",
    "neo_reference_id": "3601278",
    "name": "(2012 EK5)",
    "designation": "2012 EK5",
    "nasa_jpl_url": "http://ssd.jpl.nasa.gov/sbdb.cgi?sstr=3601278",
    "absolute_magnitude_h": 25.6,
    "estimated_diameter": {
        "kilometers": {
            "estimated_diameter_min": 0.0201629919,
            "estimated_diameter_max": 0.0450858206
        },
        "meters": {
            "estimated_diameter_min": 20.1629919443,
            "estimated_diameter_max": 45.0858206172
        },
        "miles": {
            "estimated_diameter_min": 0.0125286985,
            "estimated_diameter_max": 0.0280150214
        },
        "feet": {
            "estimated_diameter_min": 66.1515504905,
            "estimated_diameter_max": 147.9193637137
        }
    },
    "is_potentially_hazardous_asteroid": false,
    "close_approach_data": [
        {
            "close_approach_date": "2012-03-22",
            "close_approach_date_full": "2012-Mar-22 04:33",
            "epoch_date_close_approach": 1332390780000,
            "relative_velocity": {
                "kilometers_per_second": "15.5049328024",
                "kilometers_per_hour": "55817.7580887764",
                "miles_per_hour": "34682.9841857733"
            },
            "miss_distance": {
                "astronomical": "0.0149611824",
                "lunar": "5.8198999536",
                "kilometers": "2238161.019721488",
                "miles": "1390728.7687050144"
            },
            "orbiting_body": "Earth"
        },
        {
            "close_approach_date": "2083-03-10",
            "close_approach_date_full": "2083-Mar-10 09:28",
            "epoch_date_close_approach": 3571896480000,
            "relative_velocity": {
                "kilometers_per_second": "21.4223605635",
                "kilometers_per_hour": "77120.4980286464",
                "miles_per_hour": "47919.678344522"
            },
            "miss_distance": {
                "astronomical": "0.2211930455",
                "lunar": "86.0440946995",
                "kilometers": "33090008.465613085",
                "miles": "20561177.826047173"
            },
            "orbiting_body": "Earth"
        }
    ],
    "orbital_data": {
        "orbit_id": "5",
        "orbit_determination_date": "2017-04-06 08:50:36",
        "first_observation_date": "2012-03-13",
        "last_observation_date": "2012-03-19",
        "data_arc_in_days": 6,
        "observations_used": 24,
        "orbit_uncertainty": "9",
        "minimum_orbit_intersection": ".00530294",
        "jupiter_tisserand_invariant": "3.826",
        "epoch_osculation": "2456000.5",
        "eccentricity": ".5576286548051698",
        "semi_major_axis": "1.820276414270219",
        "inclination": "9.950801285408074",
        "ascending_node_longitude": "4.500812951724806",
        "orbital_period": "897.02477842069",
        "perihelion_distance": ".8052381260071386",
        "perihelion_argument": "240.4859286225832",
        "aphelion_distance": "2.835314702533299",
        "perihelion_time": "2456051.323809300015",
        "mean_anomaly": "339.603048000281",
        "mean_motion": ".4013267065306928",
        "equinox": "J2000",
        "orbit_class": {
            "orbit_class_type": "APO",
            "orbit_class_description": "Near-Earth asteroid orbits which cross the Earth’s orbit similar to that of 1862 Apollo",
            "orbit_class_range": "a (semi-major axis) > 1.0 AU; q (perihelion) < 1.017 AU"
        }
    },
    "is_sentry_object": false
}